[{"OBJECT_NAME":"YAOGAN-30 02C","OBJECT_ID":"2017-058C","EPOCH":"2026-03-09T23:23:41.320320","MEAN_MOTION":15.0385567,"ECCENTRICITY":0.00042194,"INCLINATION":34.9965,"RA_OF_ASC_NODE":266.8068,"ARG_OF_PERICENTER":49.9722,"MEAN_ANOMALY":310.1357,"EPHEMERIS_TYPE":0,"CLASSIFICATION_TYPE":"U","NORAD_CAT_ID":42947,"ELEMENT_SET_NO":999,"REV_AT_EPOCH":46087,"BSTAR":0.00031396475,"MEAN_MOTION_DOT":4.384e-5,"MEAN_MOTION_DDOT":0},{"OBJECT_NAME":"STARLINK-5516","OBJECT_ID":"2023-094AM","EPOCH":"2026-03-09T22:00:01.999584","MEAN_MOTION":15.05511241,"ECCENTRICITY":0.00020084,"INCLINATION":43.0006,"RA_OF_ASC_NODE":16.2517,"ARG_OF_PERICENTER":243.6792,"MEAN_ANOMALY":65.2221,"EPHEMERIS_TYPE":0,"CLASSIFICATION_TYPE":"U","NORAD_CAT_ID":57253,"ELEMENT_SET_NO":999,"REV_AT_EPOCH":577,"BSTAR":0.0022825999,"MEAN_MOTION_DOT":0.00033336,"MEAN_MOTION_DDOT":0}]
